OBJECT_NAME,OBJECT_ID,EPOCH,MEAN_MOTION,ECCENTRICITY,INCLINATION,RA_OF_ASC_NODE,ARG_OF_PERICENTER,MEAN_ANOMALY,EPHEMERIS_TYPE,CLASSIFICATION_TYPE,NORAD_CAT_ID,ELEMENT_SET_NO,REV_AT_EPOCH,BSTAR,MEAN_MOTION_DOT,MEAN_MOTION_DDOT
SKYSAT-C1,2016-040C,2026-06-09T11:09:42.867936,15.36169689,.00040695,96.9572,192.6041,73.0207,287.1484,0,U,41601,999,55668,.24002921E-3,.8387E-4,0
LAPAN-A3,2016-040E,2026-06-09T14:52:29.162208,15.33056388,.00116846,97.1486,157.0144,50.3382,309.8890,0,U,41603,999,55365,.97553638E-4,.3046E-4,0
GAOFEN-3,2016-049A,2026-06-09T14:11:15.136224,14.42214633,.0001234,98.4016,168.4920,99.2655,260.8674,0,U,41727,999,51755,.41341211E-4,.93E-6,0
SKYSAT-C4,2016-058B,2026-06-09T12:18:26.456544,15.48347087,.00008498,96.9182,182.6074,103.8243,256.3104,0,U,41771,999,54428,.28324446E-3,.14904E-3,0
SKYSAT-C5,2016-058C,2026-06-09T01:58:57.063360,15.34353209,.00019623,97.0478,201.0848,2.7581,357.3674,0,U,41772,999,54250,.19490432E-3,.6409E-4,0
SKYSAT-C2,2016-058D,2026-06-09T12:53:15.396864,15.41896029,.00050688,97.0174,182.9208,86.9601,273.2227,0,U,41773,999,54387,.27193651E-3,.11479E-3,0
SKYSAT-C3,2016-058E,2026-06-09T12:53:23.508960,15.52210680,.00018569,96.9014,191.6804,84.1907,275.9559,0,U,41774,999,54492,.32934127E-3,.19894E-3,0
ALSAT-1B,2016-059C,2026-06-09T15:04:42.567744,14.72269260,.00077501,97.7755,169.7182,249.0524,110.9855,0,U,41785,999,51946,.58335372E-4,.321E-5,0
PATHFINDER 1,2016-059E,2026-06-09T10:22:50.096064,14.67654279,.00272695,97.8166,160.0587,229.1035,130.7808,0,U,41787,999,51857,.99120579E-4,.52E-5,0
SCATSAT 1,2016-059H,2026-06-09T10:27:28.659168,14.79509168,.00532818,98.1193,224.1218,273.1382,86.3733,0,U,41790,999,10044,.12901804E-3,.93E-5,0
GOKTURK 1A,2016-073A,2026-06-09T15:40:09.007392,14.62768762,.00014621,98.1256,55.4447,78.1787,281.9579,0,U,41875,999,50772,.4603916E-4,.188E-5,0
RESOURCESAT-2A,2016-074A,2026-06-09T14:38:48.724224,14.21615604,.00033515,98.7522,234.1765,97.3639,262.7919,0,U,41877,999,49322,.2630151E-3,.533E-5,0
CARTOSAT-2D,2017-008A,2026-06-09T15:36:12.541824,15.19274710,.00036168,97.4107,220.0968,265.2641,94.8181,0,U,41948,999,51643,.16093958E-3,.3327E-4,0
SENTINEL-2B,2017-013A,2026-06-09T14:02:33.086688,14.30815799,.00012232,98.5687,235.4668,84.6095,275.5227,0,U,42063,999,48355,.12937068E-3,.295E-5,0
CARTOSAT-2E,2017-036C,2026-06-09T14:26:42.883008,15.19263409,.00029734,97.4279,220.5292,355.1233,4.9973,0,U,42767,999,49699,.15052978E-3,.3106E-4,0
FORMOSAT-5,2017-049A,2026-06-09T11:12:22.580928,14.50896019,.00126686,98.2253,235.9481,105.6112,254.6482,0,U,42920,999,46555,.46875866E-4,.142E-5,0
SENTINEL-5P,2017-064A,2026-06-09T10:45:43.297920,14.19517726,.00009992,98.7923,102.6348,81.8663,278.2626,0,U,42969,999,44846,.45540516E-4,.52E-6,0
SKYSAT-C11,2017-068A,2026-06-09T09:54:22.491648,15.57490612,.00010006,97.4342,308.9090,86.7243,273.4127,0,U,42987,999,48203,.32795251E-3,.24031E-3,0
SKYSAT-C10,2017-068B,2026-06-09T08:05:27.933504,15.34504232,.00012414,97.4492,297.1095,90.4009,269.7376,0,U,42988,999,48115,.24919262E-3,.8249E-4,0
SKYSAT-C9,2017-068C,2026-06-09T09:13:13.912320,15.41368313,.00090378,97.4413,298.0177,158.0534,202.1101,0,U,42989,999,48155,.2872936E-3,.11925E-3,0
SKYSAT-C8,2017-068D,2026-06-09T07:41:19.054752,15.36820963,.00015599,97.4509,296.8625,98.1178,262.0243,0,U,42990,999,48110,.26308125E-3,.9386E-4,0
SKYSAT-C7,2017-068E,2026-06-09T09:05:30.810048,15.36770385,.00070379,97.4520,297.9109,129.5363,230.6504,0,U,42991,999,48117,.26450434E-3,.9428E-4,0
SKYSAT-C6,2017-068F,2026-06-09T07:40:26.961600,15.34073641,.00039873,97.4556,297.8494,158.4770,201.6641,0,U,42992,999,48111,.25502931E-3,.833E-4,0
CARTOSAT-2F,2018-004A,2026-06-08T10:45:21.335040,15.19309472,.00000418,97.4787,219.1684,272.9757,87.1473,0,U,43111,999,46600,.24903257E-3,.519E-4,0
GAOFEN-1 02,2018-031A,2026-06-09T15:22:11.054208,14.76471396,.00043163,98.0526,223.1884,49.5946,310.5640,0,U,43259,999,44158,.88866257E-4,.567E-5,0
GAOFEN-1 03,2018-031B,2026-06-09T14:50:46.472352,14.76458335,.00038266,98.0525,223.0258,94.0590,266.1057,0,U,43260,999,44157,.10076913E-3,.65E-5,0
GAOFEN-1 04,2018-031D,2026-06-09T14:15:48.332160,14.76468413,.00022428,98.0527,223.1913,89.2792,270.8675,0,U,43262,999,44156,.98187421E-4,.632E-5,0
SENTINEL-3B,2018-039A,2026-06-09T11:24:35.773920,14.26739618,.0000845,98.6249,228.1182,78.9566,281.1709,0,U,43437,999,42302,.58009221E-4,.97E-6,0
GAOFEN-5 01,2018-043A,2026-06-09T12:37:39.442944,14.60600236,.00030356,98.4565,131.9517,97.2543,262.9002,0,U,43461,999,43057,.75459475E-4,.318E-5,0
GAOFEN-6,2018-048A,2026-06-09T01:47:54.508416,14.76624229,.0011378,97.7757,223.0567,194.8499,165.2379,0,U,43484,999,43219,.12207314E-3,.804E-5,0
