SKYSAT-C1               
1 41601U 16040C   26160.46507949  .00008387  00000+0  24003-3 0  9999
2 41601  96.9572 192.6041 0004069  73.0207 287.1484 15.36169689556681
LAPAN-A3                
1 41603U 16040E   26160.61978197  .00003046  00000+0  97554-4 0  9994
2 41603  97.1486 157.0144 0011684  50.3382 309.8890 15.33056388553657
GAOFEN-3                
1 41727U 16049A   26160.59114741  .00000093  00000+0  41341-4 0  9996
2 41727  98.4016 168.4920 0001234  99.2655 260.8674 14.42214633517553
SKYSAT-C4               
1 41771U 16058B   26160.51280621  .00014904  00000+0  28324-3 0  9999
2 41771  96.9182 182.6074 0000849 103.8243 256.3104 15.48347087544288
SKYSAT-C5               
1 41772U 16058C   26160.08260490  .00006409  00000+0  19490-3 0  9999
2 41772  97.0478 201.0848 0001962   2.7581 357.3674 15.34353209542508
SKYSAT-C2               
1 41773U 16058D   26160.53698376  .00011479  00000+0  27194-3 0  9991
2 41773  97.0174 182.9208 0005068  86.9601 273.2227 15.41896029543878
SKYSAT-C3               
1 41774U 16058E   26160.53707765  .00019894  00000+0  32934-3 0  9992
2 41774  96.9014 191.6804 0001856  84.1907 275.9559 15.52210680544928
ALSAT-1B                
1 41785U 16059C   26160.62827046  .00000321  00000+0  58335-4 0  9999
2 41785  97.7755 169.7182 0007750 249.0524 110.9855 14.72269260519469
PATHFINDER 1            
1 41787U 16059E   26160.43252426  .00000520  00000+0  99121-4 0  9993
2 41787  97.8166 160.0587 0027269 229.1035 130.7808 14.67654279518575
SCATSAT 1               
1 41790U 16059H   26160.43574837  .00000930  00000+0  12902-3 0  9996
2 41790  98.1193 224.1218 0053281 273.1382  86.3733 14.79509168100448
GOKTURK 1A              
1 41875U 16073A   26160.65288203  .00000188  00000+0  46039-4 0  9993
2 41875  98.1256  55.4447 0001462  78.1787 281.9579 14.62768762507729
RESOURCESAT-2A          
1 41877U 16074A   26160.61028616  .00000533  00000+0  26302-3 0  9996
2 41877  98.7522 234.1765 0003351  97.3639 262.7919 14.21615604493225
CARTOSAT-2D             
1 41948U 17008A   26160.65014516  .00003327  00000+0  16094-3 0  9992
2 41948  97.4107 220.0968 0003616 265.2641  94.8181 15.19274710516432
SENTINEL-2B             
1 42063U 17013A   26160.58510517  .00000295  00000+0  12937-3 0  9994
2 42063  98.5687 235.4668 0001223  84.6095 275.5227 14.30815799483556
CARTOSAT-2E             
1 42767U 17036C   26160.60188522  .00003106  00000+0  15053-3 0  9996
2 42767  97.4279 220.5292 0002973 355.1233   4.9973 15.19263409496990
FORMOSAT-5              
1 42920U 17049A   26160.46692802  .00000142  00000+0  46876-4 0  9991
2 42920  98.2253 235.9481 0012668 105.6112 254.6482 14.50896019465558
SENTINEL-5P             
1 42969U 17064A   26160.44841780  .00000052  00000+0  45541-4 0  9998
2 42969  98.7923 102.6348 0000999  81.8663 278.2626 14.19517726448465
SKYSAT-C11              
1 42987U 17068A   26160.41276032  .00024031  00000+0  32795-3 0  9990
2 42987  97.4342 308.9090 0001000  86.7243 273.4127 15.57490612482034
SKYSAT-C10              
1 42988U 17068B   26160.33712886  .00008249  00000+0  24919-3 0  9996
2 42988  97.4492 297.1095 0001241  90.4009 269.7376 15.34504232481159
SKYSAT-C9               
1 42989U 17068C   26160.38418880  .00011925  00000+0  28729-3 0  9997
2 42989  97.4413 298.0177 0009037 158.0534 202.1101 15.41368313481556
SKYSAT-C8               
1 42990U 17068D   26160.32035943  .00009386  00000+0  26308-3 0  9997
2 42990  97.4509 296.8625 0001559  98.1178 262.0243 15.36820963481108
SKYSAT-C7               
1 42991U 17068E   26160.37882882  .00009428  00000+0  26450-3 0  9990
2 42991  97.4520 297.9109 0007037 129.5363 230.6504 15.36770385481173
SKYSAT-C6               
1 42992U 17068F   26160.31975650  .00008330  00000+0  25503-3 0  9990
2 42992  97.4556 297.8494 0003987 158.4770 201.6641 15.34073641481115
CARTOSAT-2F             
1 43111U 18004A   26159.44816360  .00005190  00000+0  24903-3 0  9993
2 43111  97.4787 219.1684 0000041 272.9757  87.1473 15.19309472466006
GAOFEN-1 02             
1 43259U 18031A   26160.64040572  .00000567  00000+0  88866-4 0  9996
2 43259  98.0526 223.1884 0004316  49.5946 310.5640 14.76471396441583
GAOFEN-1 03             
1 43260U 18031B   26160.61859343  .00000650  00000+0  10077-3 0  9990
2 43260  98.0525 223.0258 0003826  94.0590 266.1057 14.76458335441578
GAOFEN-1 04             
1 43262U 18031D   26160.59430940  .00000632  00000+0  98187-4 0  9996
2 43262  98.0527 223.1913 0002242  89.2792 270.8675 14.76468413441567
SENTINEL-3B             
1 43437U 18039A   26160.47541405  .00000097  00000+0  58009-4 0  9998
2 43437  98.6249 228.1182 0000845  78.9566 281.1709 14.26739618423029
GAOFEN-5 01             
1 43461U 18043A   26160.52615096  .00000318  00000+0  75459-4 0  9998
2 43461  98.4565 131.9517 0003035  97.2543 262.9002 14.60600236430573
GAOFEN-6                
1 43484U 18048A   26160.07493644  .00000804  00000+0  12207-3 0  9992
2 43484  97.7757 223.0567 0011378 194.8499 165.2379 14.76624229432191
